[Satellite]
VERSION=1.1
NAME=ZDPS 2A
NICKNAME=ZDPS 2A
TLE1=1 40901U 15049C   20158.19691152  .00001271  00000-0  65206-4 0  9997
TLE2=2 40901  97.4609 164.0818 0014925  56.2304  10.2342 15.18275147260865
STATUS=0
